STARLINK-35540          
1 66151U 25240F   25322.88271405  .00068579  00000+0  12294-2 0  9995
2 66151  53.1594 218.8978 0000968 100.4356 259.6762 15.49330938  5000
STARLINK-35455          
1 66152U 25240G   25322.91671296 -.00005681  00000+0 -13213-3 0  9992
2 66152  53.1600 218.9227 0001292  95.7689 359.7511 15.39623721  5078
STARLINK-34752          
1 66153U 25240H   25322.91671296 -.02408520  00000+0 -61494-1 0  9996
2 66153  53.1595 218.7683 0001617 104.1583  69.5322 15.42531631  5073
STARLINK-34625          
1 66154U 25240J   25322.94619319  .00086763  00000+0  15493-2 0  9994
2 66154  53.1596 218.5828 0001076  92.4053 267.7079 15.49336656  5061
STARLINK-35580          
1 66155U 25240K   25322.94585014  .00043496  00000+0  78520-3 0  9996
2 66155  53.1595 218.5795 0001345 106.0321 254.0836 15.49329134  5011
STARLINK-35621          
1 66156U 25240L   25322.91671296 -.02093086  00000+0 -49500-1 0  9990
2 66156  53.1593 218.7317 0001249  84.3515 107.0799 15.44859607  5077
STARLINK-35594          
1 66157U 25240M   25322.94516745  .00032569  00000+0  58993-3 0  9994
2 66157  53.1595 218.5748 0001322  90.3990 269.7171 15.49371022  5011
STARLINK-35587          
1 66158U 25240N   25322.91671296 -.00004838  00000+0 -11107-3 0  9991
2 66158  53.1596 218.8623 0000823  88.9051  36.0709 15.39614685  5076
STARLINK-35586          
1 66159U 25240P   25322.94447721  .00078701  00000+0  14080-2 0  9999
2 66159  53.1595 218.5703 0001240  75.0758 285.0388 15.49326366  5017
STARLINK-35636          
1 66160U 25240Q   25322.91671296 -.00003278  00000+0 -71998-4 0  9996
2 66160  53.1598 218.8654 0001383  94.6798  28.4293 15.39623424  5073
STARLINK-35635          
1 66161U 25240R   25322.91671296 -.00006989  00000+0 -16486-3 0  9999
2 66161  53.1601 218.9161 0001313 101.8526 355.4957 15.39624869  5070
STARLINK-35633          
1 66162U 25240S   25322.91671296  .00014878  00000+0  27525-3 0  9990
2 66162  53.1603 218.3457 0000879  86.3954 296.1469 15.49287026  5073
