CCSDS_OMM_VERS = 2.0
CREATION_DATE  = 
ORIGINATOR     = 

OBJECT_NAME    = STARLINK-35540
OBJECT_ID      = 2025-240F
CENTER_NAME    = EARTH
REF_FRAME      = TEME
TIME_SYSTEM    = UTC
MEAN_ELEMENT_THEORY = SGP/SGP4

EPOCH          = 2025-11-18T21:11:06.493920
MEAN_MOTION    = 15.49330938
ECCENTRICITY   = .00009683
INCLINATION    = 53.1594
RA_OF_ASC_NODE = 218.8978
ARG_OF_PERICENTER = 100.4356
MEAN_ANOMALY   = 259.6762

EPHEMERIS_TYPE = 0
CLASSIFICATION_TYPE = U
NORAD_CAT_ID   = 66151
ELEMENT_SET_NO = 999
REV_AT_EPOCH   = 500
BSTAR          = .12293527E-2
MEAN_MOTION_DOT = .68579E-3
MEAN_MOTION_DDOT = 0

CCSDS_OMM_VERS = 2.0
CREATION_DATE  = 
ORIGINATOR     = 

OBJECT_NAME    = STARLINK-35455
OBJECT_ID      = 2025-240G
CENTER_NAME    = EARTH
REF_FRAME      = TEME
TIME_SYSTEM    = UTC
MEAN_ELEMENT_THEORY = SGP/SGP4

EPOCH          = 2025-11-18T22:00:03.999744
MEAN_MOTION    = 15.39623721
ECCENTRICITY   = .00012924
INCLINATION    = 53.1600
RA_OF_ASC_NODE = 218.9227
ARG_OF_PERICENTER = 95.7689
MEAN_ANOMALY   = 359.7511

EPHEMERIS_TYPE = 0
CLASSIFICATION_TYPE = U
NORAD_CAT_ID   = 66152
ELEMENT_SET_NO = 999
REV_AT_EPOCH   = 507
BSTAR          = -.13213347E-3
MEAN_MOTION_DOT = -.5681E-4
MEAN_MOTION_DDOT = 0

CCSDS_OMM_VERS = 2.0
CREATION_DATE  = 
ORIGINATOR     = 

OBJECT_NAME    = STARLINK-34752
OBJECT_ID      = 2025-240H
CENTER_NAME    = EARTH
REF_FRAME      = TEME
TIME_SYSTEM    = UTC
MEAN_ELEMENT_THEORY = SGP/SGP4

EPOCH          = 2025-11-18T22:00:03.999744
MEAN_MOTION    = 15.42531631
ECCENTRICITY   = .00016171
INCLINATION    = 53.1595
RA_OF_ASC_NODE = 218.7683
ARG_OF_PERICENTER = 104.1583
MEAN_ANOMALY   = 69.5322

EPHEMERIS_TYPE = 0
CLASSIFICATION_TYPE = U
NORAD_CAT_ID   = 66153
ELEMENT_SET_NO = 999
REV_AT_EPOCH   = 507
BSTAR          = -.6149427E-1
MEAN_MOTION_DOT = -.240852E-1
MEAN_MOTION_DDOT = 0

CCSDS_OMM_VERS = 2.0
CREATION_DATE  = 
ORIGINATOR     = 

OBJECT_NAME    = STARLINK-34625
OBJECT_ID      = 2025-240J
CENTER_NAME    = EARTH
REF_FRAME      = TEME
TIME_SYSTEM    = UTC
MEAN_ELEMENT_THEORY = SGP/SGP4

EPOCH          = 2025-11-18T22:42:31.091616
MEAN_MOTION    = 15.49336656
ECCENTRICITY   = .00010763
INCLINATION    = 53.1596
RA_OF_ASC_NODE = 218.5828
ARG_OF_PERICENTER = 92.4053
MEAN_ANOMALY   = 267.7079

EPHEMERIS_TYPE = 0
CLASSIFICATION_TYPE = U
NORAD_CAT_ID   = 66154
ELEMENT_SET_NO = 999
REV_AT_EPOCH   = 506
BSTAR          = .15492815E-2
MEAN_MOTION_DOT = .86763E-3
MEAN_MOTION_DDOT = 0

CCSDS_OMM_VERS = 2.0
CREATION_DATE  = 
ORIGINATOR     = 

OBJECT_NAME    = STARLINK-35580
OBJECT_ID      = 2025-240K
CENTER_NAME    = EARTH
REF_FRAME      = TEME
TIME_SYSTEM    = UTC
MEAN_ELEMENT_THEORY = SGP/SGP4

EPOCH          = 2025-11-18T22:42:01.452096
MEAN_MOTION    = 15.49329134
ECCENTRICITY   = .00013456
INCLINATION    = 53.1595
RA_OF_ASC_NODE = 218.5795
ARG_OF_PERICENTER = 106.0321
MEAN_ANOMALY   = 254.0836

EPHEMERIS_TYPE = 0
CLASSIFICATION_TYPE = U
NORAD_CAT_ID   = 66155
ELEMENT_SET_NO = 999
REV_AT_EPOCH   = 501
BSTAR          = .78519775E-3
MEAN_MOTION_DOT = .43496E-3
MEAN_MOTION_DDOT = 0

CCSDS_OMM_VERS = 2.0
CREATION_DATE  = 
ORIGINATOR     = 

OBJECT_NAME    = STARLINK-35621
OBJECT_ID      = 2025-240L
CENTER_NAME    = EARTH
REF_FRAME      = TEME
TIME_SYSTEM    = UTC
MEAN_ELEMENT_THEORY = SGP/SGP4

EPOCH          = 2025-11-18T22:00:03.999744
MEAN_MOTION    = 15.44859607
ECCENTRICITY   = .00012499
INCLINATION    = 53.1593
RA_OF_ASC_NODE = 218.7317
ARG_OF_PERICENTER = 84.3515
MEAN_ANOMALY   = 107.0799

EPHEMERIS_TYPE = 0
CLASSIFICATION_TYPE = U
NORAD_CAT_ID   = 66156
ELEMENT_SET_NO = 999
REV_AT_EPOCH   = 507
BSTAR          = -.49500456E-1
MEAN_MOTION_DOT = -.2093086E-1
MEAN_MOTION_DDOT = 0

CCSDS_OMM_VERS = 2.0
CREATION_DATE  = 
ORIGINATOR     = 

OBJECT_NAME    = STARLINK-35594
OBJECT_ID      = 2025-240M
CENTER_NAME    = EARTH
REF_FRAME      = TEME
TIME_SYSTEM    = UTC
MEAN_ELEMENT_THEORY = SGP/SGP4

EPOCH          = 2025-11-18T22:41:02.467680
MEAN_MOTION    = 15.49371022
ECCENTRICITY   = .00013222
INCLINATION    = 53.1595
RA_OF_ASC_NODE = 218.5748
ARG_OF_PERICENTER = 90.3990
MEAN_ANOMALY   = 269.7171

EPHEMERIS_TYPE = 0
CLASSIFICATION_TYPE = U
NORAD_CAT_ID   = 66157
ELEMENT_SET_NO = 999
REV_AT_EPOCH   = 501
BSTAR          = .5899257E-3
MEAN_MOTION_DOT = .32569E-3
MEAN_MOTION_DDOT = 0

CCSDS_OMM_VERS = 2.0
CREATION_DATE  = 
ORIGINATOR     = 

OBJECT_NAME    = STARLINK-35587
OBJECT_ID      = 2025-240N
CENTER_NAME    = EARTH
REF_FRAME      = TEME
TIME_SYSTEM    = UTC
MEAN_ELEMENT_THEORY = SGP/SGP4

EPOCH          = 2025-11-18T22:00:03.999744
MEAN_MOTION    = 15.39614685
ECCENTRICITY   = .00008235
INCLINATION    = 53.1596
RA_OF_ASC_NODE = 218.8623
ARG_OF_PERICENTER = 88.9051
MEAN_ANOMALY   = 36.0709

EPHEMERIS_TYPE = 0
CLASSIFICATION_TYPE = U
NORAD_CAT_ID   = 66158
ELEMENT_SET_NO = 999
REV_AT_EPOCH   = 507
BSTAR          = -.11106758E-3
MEAN_MOTION_DOT = -.4838E-4
MEAN_MOTION_DDOT = 0

CCSDS_OMM_VERS = 2.0
CREATION_DATE  = 
ORIGINATOR     = 

OBJECT_NAME    = STARLINK-35586
OBJECT_ID      = 2025-240P
CENTER_NAME    = EARTH
REF_FRAME      = TEME
TIME_SYSTEM    = UTC
MEAN_ELEMENT_THEORY = SGP/SGP4

EPOCH          = 2025-11-18T22:40:02.830944
MEAN_MOTION    = 15.49326366
ECCENTRICITY   = .00012404
INCLINATION    = 53.1595
RA_OF_ASC_NODE = 218.5703
ARG_OF_PERICENTER = 75.0758
MEAN_ANOMALY   = 285.0388

EPHEMERIS_TYPE = 0
CLASSIFICATION_TYPE = U
NORAD_CAT_ID   = 66159
ELEMENT_SET_NO = 999
REV_AT_EPOCH   = 501
BSTAR          = .14080126E-2
MEAN_MOTION_DOT = .78701E-3
MEAN_MOTION_DDOT = 0

CCSDS_OMM_VERS = 2.0
CREATION_DATE  = 
ORIGINATOR     = 

OBJECT_NAME    = STARLINK-35636
OBJECT_ID      = 2025-240Q
CENTER_NAME    = EARTH
REF_FRAME      = TEME
TIME_SYSTEM    = UTC
MEAN_ELEMENT_THEORY = SGP/SGP4

EPOCH          = 2025-11-18T22:00:03.999744
MEAN_MOTION    = 15.39623424
ECCENTRICITY   = .00013835
INCLINATION    = 53.1598
RA_OF_ASC_NODE = 218.8654
ARG_OF_PERICENTER = 94.6798
MEAN_ANOMALY   = 28.4293

EPHEMERIS_TYPE = 0
CLASSIFICATION_TYPE = U
NORAD_CAT_ID   = 66160
ELEMENT_SET_NO = 999
REV_AT_EPOCH   = 507
BSTAR          = -.71997721E-4
MEAN_MOTION_DOT = -.3278E-4
MEAN_MOTION_DDOT = 0

CCSDS_OMM_VERS = 2.0
CREATION_DATE  = 
ORIGINATOR     = 

OBJECT_NAME    = STARLINK-35635
OBJECT_ID      = 2025-240R
CENTER_NAME    = EARTH
REF_FRAME      = TEME
TIME_SYSTEM    = UTC
MEAN_ELEMENT_THEORY = SGP/SGP4

EPOCH          = 2025-11-18T22:00:03.999744
MEAN_MOTION    = 15.39624869
ECCENTRICITY   = .0001313
INCLINATION    = 53.1601
RA_OF_ASC_NODE = 218.9161
ARG_OF_PERICENTER = 101.8526
MEAN_ANOMALY   = 355.4957

EPHEMERIS_TYPE = 0
CLASSIFICATION_TYPE = U
NORAD_CAT_ID   = 66161
ELEMENT_SET_NO = 999
REV_AT_EPOCH   = 507
BSTAR          = -.16485998E-3
MEAN_MOTION_DOT = -.6989E-4
MEAN_MOTION_DDOT = 0

CCSDS_OMM_VERS = 2.0
CREATION_DATE  = 
ORIGINATOR     = 

OBJECT_NAME    = STARLINK-35633
OBJECT_ID      = 2025-240S
CENTER_NAME    = EARTH
REF_FRAME      = TEME
TIME_SYSTEM    = UTC
MEAN_ELEMENT_THEORY = SGP/SGP4

EPOCH          = 2025-11-18T22:00:03.999744
MEAN_MOTION    = 15.49287026
ECCENTRICITY   = .00008798
INCLINATION    = 53.1603
RA_OF_ASC_NODE = 218.3457
ARG_OF_PERICENTER = 86.3954
MEAN_ANOMALY   = 296.1469

EPHEMERIS_TYPE = 0
CLASSIFICATION_TYPE = U
NORAD_CAT_ID   = 66162
ELEMENT_SET_NO = 999
REV_AT_EPOCH   = 507
BSTAR          = .2752521E-3
MEAN_MOTION_DOT = .14878E-3
MEAN_MOTION_DDOT = 0

